{
    "links": {
        "self": "http://www.neowsapp.com/rest/v1/neo/3293962?api_key=iIulBulltgU6a56xZRHN4H3l9WmuAYTsLGpBGhQ2"
    },
    "id": "3293962",
    "neo_reference_id": "3293962",
    "name": "(2005 TV51)",
    "designation": "2005 TV51",
    "nasa_jpl_url": "http://ssd.jpl.nasa.gov/sbdb.cgi?sstr=3293962",
    "absolute_magnitude_h": 26.4,
    "estimated_diameter": {
        "kilometers": {
            "estimated_diameter_min": 0.0139493823,
            "estimated_diameter_max": 0.0311917671
        },
        "meters": {
            "estimated_diameter_min": 13.9493822934,
            "estimated_diameter_max": 31.1917670523
        },
        "miles": {
            "estimated_diameter_min": 0.0086677416,
            "estimated_diameter_max": 0.0193816595
        },
        "feet": {
            "estimated_diameter_min": 45.7656914036,
            "estimated_diameter_max": 102.3351970157
        }
    },
    "is_potentially_hazardous_asteroid": false,
    "close_approach_data": [
        {
            "close_approach_date": "1953-09-06",
            "close_approach_date_full": "1953-Sep-06 04:33",
            "epoch_date_close_approach": -515014020000,
            "relative_velocity": {
                "kilometers_per_second": "20.4721442092",
                "kilometers_per_hour": "73699.7191530422",
                "miles_per_hour": "45794.1393815112"
            },
            "miss_distance": {
                "astronomical": "0.4179132397",
                "lunar": "162.5682502433",
                "kilometers": "62518930.503919439",
                "miles": "38847462.0343846982"
            },
            "orbiting_body": "Earth"
        },
        {
            "close_approach_date": "2005-10-14",
            "close_approach_date_full": "2005-Oct-14 17:44",
            "epoch_date_close_approach": 1129311840000,
            "relative_velocity": {
                "kilometers_per_second": "9.3975411491",
                "kilometers_per_hour": "33831.1481368996",
                "miles_per_hour": "21021.3597965085"
            },
            "miss_distance": {
                "astronomical": "0.009067209",
                "lunar": "3.527144301",
                "kilometers": "1356435.15324483",
                "miles": "842849.720765454"
            },
            "orbiting_body": "Moon"
        },
        {
            "close_approach_date": "2005-10-14",
            "close_approach_date_full": "2005-Oct-14 22:53",
            "epoch_date_close_approach": 1129330380000,
            "relative_velocity": {
                "kilometers_per_second": "9.6223677986",
                "kilometers_per_hour": "34640.524074977",
                "miles_per_hour": "21524.2745286989"
            },
            "miss_distance": {
                "astronomical": "0.0106560355",
                "lunar": "4.1451978095",
                "kilometers": "1594120.213444385",
                "miles": "990540.368667113"
            },
            "orbiting_body": "Earth"
        }
    ],
    "orbital_data": {
        "orbit_id": "9",
        "orbit_determination_date": "2017-04-06 09:10:14",
        "first_observation_date": "2005-10-13",
        "last_observation_date": "2005-10-16",
        "data_arc_in_days": 3,
        "observations_used": 32,
        "orbit_uncertainty": "7",
        "minimum_orbit_intersection": ".0163789",
        "jupiter_tisserand_invariant": "3.617",
        "epoch_osculation": "2459000.5",
        "eccentricity": ".513468298314593",
        "semi_major_axis": "2.030703492564794",
        "inclination": "10.47573987034158",
        "ascending_node_longitude": "19.50518201748629",
        "orbital_period": "1056.983482170505",
        "perihelion_distance": ".9880016258560486",
        "perihelion_argument": "23.50716290507025",
        "aphelion_distance": "3.07340535927354",
        "perihelion_time": "2458959.420639058888",
        "mean_anomaly": "13.99129710942339",
        "mean_motion": ".3405918882107256",
        "equinox": "J2000",
        "orbit_class": {
            "orbit_class_type": "APO",
            "orbit_class_description": "Near-Earth asteroid orbits which cross the Earth’s orbit similar to that of 1862 Apollo",
            "orbit_class_range": "a (semi-major axis) > 1.0 AU; q (perihelion) < 1.017 AU"
        }
    },
    "is_sentry_object": false
}